STARLINK-6029           
1 56803C 23078AN  25188.09562500 -.00020336  00000+0 -17037-2 0  1888
2 56803  70.0004 243.6557 0003510 270.6406  74.7479 14.98361916    18
STARLINK-6069           
1 56804C 23078AP  25188.09631944 -.00002616  00000+0 -21921-3 0  1887
2 56804  70.0002 223.6091 0003031 271.2359 236.5421 14.98340553    19
STARLINK-6064           
1 56805C 23078AQ  25188.10256944 -.00006619  00000+0 -55463-3 0  1888
2 56805  70.0000 223.6164 0003263 270.5901 248.4944 14.98341130    15
STARLINK-6072           
1 56806C 23078AR  25188.09562500 -.00006852  00000+0 -57415-3 0  1883
2 56806  70.0000 203.5260 0003422 265.6228  59.7784 14.98341747    13
STARLINK-6073           
1 56807C 23078AS  25188.09770833 -.00003367  00000+0 -28211-3 0  1884
2 56807  70.0000 223.5054 0003803 269.1992 336.2303 14.98337377    11
STARLINK-6042           
1 56808C 23078AT  25188.10048611 -.00011358  00000+0 -95188-3 0  1885
2 56808  70.0002 173.7531 0003624 266.8438 322.8674 14.98338110    18
STARLINK-6040           
1 56809C 23078AU  25188.09770833 -.00007153  00000+0 -59938-3 0  1883
2 56809  70.0001 243.5271 0003783 270.2728 198.8998 14.98341368    11
STARLINK-6031           
1 56810C 23078AV  25188.09979167 -.00001838  00000+0 -15401-3 0  1887
2 56810  70.0003 243.6203 0003696 269.2011 121.1610 14.98336118    14
STARLINK-6063           
1 56811C 23078AW  25188.09840278 -.00007116  00000+0 -59616-3 0  1889
2 56811  70.0000 203.5421 0004057 261.1371  56.7048 14.98346108    19
STARLINK-6065           
1 56812C 23078AX  25188.09979167 -.00003242  00000+0 -27176-3 0  1882
2 56812  70.0001 223.5565 0003302 270.7829 299.9912 14.98322749    14
STARLINK-6056           
1 56813C 23078AY  25188.09631944 -.00000930  00000+0 -77971-4 0  1881
2 56813  70.0002 243.5066 0003705 270.3474 212.9520 14.98333175    18
STARLINK-6059           
1 56814C 23078AZ  25188.09909722 -.00002516  00000+0 -21078-3 0  1882
2 56814  70.0000 243.5470 0003781 267.7213 186.4309 14.98335295    16
STARLINK-6067           
1 56816C 23078BB  25188.10118056 -.00004542  00000+0 -38061-3 0  1889
2 56816  70.0000 223.4713 0004742 261.8201  24.8475 14.98335819    16
STARLINK-5982           
1 56817C 23078BC  25188.10048611 -.00001032  00000+0 -86476-4 0  1884
2 56817  70.0003 243.5926 0003749 269.1029 147.5133 14.98334783    17
STARLINK-6028           
1 56818C 23078BD  25188.09562500  .00000060  00000+0  49961-5 0  1888
2 56818  70.0003 243.5066 0003498 265.0952 215.3614 14.98329963    16
STARLINK-30119          
1 56823C 23079A   25188.09354167 -.00007211  00000+0 -53210-3 0  1880
2 56823  43.0038   2.0178 0001596 250.2167 291.3434 15.02541397    10
STARLINK-30120          
1 56824C 23079B   25188.09979167 -.00000877  00000+0 -64707-4 0  1889
2 56824  43.0038   1.9438 0001662 256.3536 337.0977 15.02529871    12
STARLINK-30084          
1 56825C 23079C   25188.09909722  .00000316  00000+0  23345-4 0  1889
2 56825  43.0036   1.9012 0001617 262.6898 345.0561 15.02521859    16
STARLINK-30114          
1 56826C 23079D   25188.09979167  .00000474  00000+0  34981-4 0  1883
2 56826  43.0038   1.9204 0001471 260.9973 260.3426 15.02544029    18
STARLINK-30151          
1 56827C 23079E   25188.09631944 -.00000067  00000+0 -49740-5 0  1882
2 56827  43.0038   1.8260 0001340 266.5891   2.1480 15.02533577    14
STARLINK-30152          
1 56828C 23079F   25188.09770833 -.00000604  00000+0 -44534-4 0  1886
2 56828  43.0038   1.7800 0001387 263.0582  31.2337 15.02535815    15
STARLINK-30128          
1 56832C 23079K   25188.09562500 -.00002408  00000+0 -17765-3 0  1880
2 56832  43.0033 335.8670 0001540 266.4395 169.6927 15.02538677    11
STARLINK-30131          
1 56833C 23079L   25188.09631944 -.00000554  00000+0 -40864-4 0  1887
2 56833  43.0033 335.8812 0001508 258.8851 240.9404 15.02541448    19
STARLINK-30069          
1 56834C 23079M   25188.09284722 -.00011473  00000+0 -84650-3 0  1888
2 56834  43.0039   1.7624 0001418 260.4012  25.5937 15.02548086    17
STARLINK-30144          
1 56835C 23079N   25188.09701389 -.00012210  00000+0 -90097-3 0  1884
2 56835  43.0040   1.7001 0001477 262.5372  64.0527 15.02545195    17
STARLINK-30142          
1 56836C 23079P   25188.09631944 -.00000372  00000+0 -27440-4 0  1883
2 56836  43.0038   1.6571 0001429 263.5167  77.3501 15.02534884    18
STARLINK-30133          
1 56837C 23079Q   25188.09840278 -.00009720  00000+0 -71722-3 0  1883
2 56837  43.0041   1.5936 0001493 262.6191 107.5691 15.02542928    19
STARLINK-30123          
1 56838C 23079R   25188.09354167  .00005274  00000+0  19100-3 0  1881
2 56838  43.0031 340.9351 0001531 266.0129 159.1563 15.27577220    13
STARLINK-30076          
1 56839C 23079S   25188.09354167 -.00000352  00000+0 -25980-4 0  1880
2 56839  43.0038   1.5725 0001454 267.3834  94.5211 15.02528068    18
STARLINK-30073          
1 56840C 23079T   25188.10395833  .00053945  00000+0  19220-2 0  1881
2 56840  43.0022 297.2056 0001782 309.5054 160.6119 15.28062123    16
STARLINK-30078          
1 56841C 23079U   25188.09840278  .00000443  00000+0  32701-4 0  1884
2 56841  43.0039   1.5171 0001488 259.3473 146.8993 15.02528801    17
STARLINK-30135          
1 56842C 23079V   25188.08173611  .00000090  00000+0  66670-5 0  1885
2 56842  43.0037   2.0241 0001315 264.4068 195.2539 15.02537924    16
STARLINK-30137          
1 56843C 23079W   25188.09770833 -.00000193  00000+0 -14235-4 0  1881
2 56843  43.0037   1.7678 0001357 267.8131 350.4912 15.02531436    13
STARLINK-30136          
1 56844C 23079X   25188.09770833 -.00000816  00000+0 -60197-4 0  1882
2 56844  43.0034   2.1053 0000736 267.7345 206.2522 15.02557129    11
STARLINK-6206           
1 56876C 23083A   25188.10118056 -.00011860  00000+0 -87521-3 0  1887
2 56876  43.0041 336.6399 0001470 265.4404  68.2173 15.02542379    18
STARLINK-6209           
1 56877C 23083B   25188.10048611 -.00013572  00000+0 -10015-2 0  1882
2 56877  43.0040 336.5422 0001751 260.5552 111.4163 15.02545362    11
STARLINK-6182           
1 56878C 23083C   25188.09909722 -.00000554  00000+0 -40867-4 0  1886
2 56878  43.0043 336.6346 0001442 263.3857  64.9030 15.02524815    12
STARLINK-5707           
1 56879C 23083D   25188.11437500 -.00014488  00000+0 -10691-2 0  1881
2 56879  43.0045 336.5087 0001463 265.7616 163.3859 15.02546105    17
STARLINK-6177           
1 56880C 23083E   25188.09701389 -.00000280  00000+0 -20668-4 0  1881
2 56880  43.0040 336.3845 0001605 270.9223 154.4712 15.02508125    13
STARLINK-5853           
1 56881C 23083F   25188.10187500 -.00001592  00000+0 -11752-3 0  1887
2 56881  43.0041 336.5458 0001537 264.7851 108.7148 15.02526706    19
STARLINK-6175           
1 56882C 23083G   25188.09979167 -.00010134  00000+0 -74783-3 0  1889
2 56882  43.0037 336.3882 0001497 264.0992 170.2292 15.02542191    18
STARLINK-6171           
1 56883C 23083H   25188.09562500 -.00003045  00000+0 -22470-3 0  1888
2 56883  43.0041 336.5331 0001357 268.1245  89.5293 15.02538078    18
STARLINK-5515           
1 56884C 23083J   25188.11923611 -.00008998  00000+0 -66394-3 0  1881
2 56884  43.0038 336.1949 0001861 260.0270 315.6657 15.02541090    10
STARLINK-5095           
1 56885C 23083K   25188.11854167 -.00005307  00000+0 -39161-3 0  1884
2 56885  43.0041 336.3671 0001431 265.2772 234.5234 15.02539600    10
STARLINK-5496           
1 56886C 23083L   25188.11784722 -.00009491  00000+0 -70030-3 0  1882
2 56886  43.0044 336.1856 0001460 265.8013 308.3728 15.02543539    17
STARLINK-6180           
1 56887C 23083M   25188.09631944 -.00001308  00000+0 -96498-4 0  1883
2 56887  43.0038 336.3624 0001460 262.4884 170.9863 15.02537389    14
STARLINK-6181           
1 56888C 23083N   25188.09631944 -.00006253  00000+0 -46140-3 0  1886
2 56888  43.0040 336.1254 0001389 265.3049 264.4247 15.02541149    14
STARLINK-6169           
1 56889C 23083P   25188.09631944 -.00011653  00000+0 -85989-3 0  1881
2 56889  43.0038 336.2606 0001483 261.6760 213.9438 15.02546083    11
STARLINK-5528           
1 56890C 23083Q   25188.11854167 -.00007179  00000+0 -52976-3 0  1888
2 56890  43.0041 336.0184 0001412 265.8432  18.2155 15.02541325    16
STARLINK-6213           
1 56891C 23083R   25188.09770833 -.00014375  00000+0 -10608-2 0  1884
2 56891  43.0035 336.2106 0001476 261.9143 239.2692 15.02546348    13
STARLINK-6219           
1 56892C 23083S   25188.09840278 -.00010252  00000+0 -75659-3 0  1884
2 56892  43.0043 336.0300 0001428 266.0864 310.9952 15.02540049    18
STARLINK-6216           
1 56893C 23083T   25188.10048611 -.00009430  00000+0 -69590-3 0  1881
2 56893  43.0039 336.1512 0001468 265.2972 268.9662 15.02541269    10
STARLINK-6144           
1 56894C 23083U   25188.09840278 -.00009492  00000+0 -70046-3 0  1885
2 56894  43.0041 336.0457 0001429 265.9224 305.1477 15.02540118    15
STARLINK-6208           
1 56895C 23083V   25188.09770833 -.00010026  00000+0 -73986-3 0  1886
2 56895  43.0042 336.0079 0001420 266.1368 319.2031 15.02539956    10
STARLINK-6202           
1 56896C 23083W   25188.09562500 -.00006496  00000+0 -47930-3 0  1883
2 56896  43.0039 335.9533 0001413 263.7200 334.3802 15.02540691    12
STARLINK-6200           
1 56897C 23083X   25188.10048611 -.00003012  00000+0 -22223-3 0  1887
2 56897  43.0034 335.9775 0001397 268.3378 338.0456 15.02537180    19
STARLINK-6205           
1 56898C 23083Y   25188.09979167 -.00005472  00000+0 -40370-3 0  1880
2 56898  43.0041 335.8458 0001348 265.7421  30.9748 15.02544033    18
STARLINK-6203           
1 56899C 23083Z   25188.10187500 -.00005076  00000+0 -37455-3 0  1885
2 56899  43.0037 335.8830 0001466 268.8201  21.1484 15.02542686    10
STARLINK-6207           
1 56900C 23083AA  25188.09770833 -.00001077  00000+0 -79476-4 0  1880
2 56900  43.0041 323.7710 0001495 269.2516 356.1235 15.02530870    14
